[{"OBJECT_NAME":"COSMOS 2494 (SKRL-756 2)","OBJECT_ID":"2013-078B","EPOCH":"2026-03-09T22:07:38.657280","MEAN_MOTION":15.04216116,"ECCENTRICITY":0.00160459,"INCLINATION":82.4161,"RA_OF_ASC_NODE":348.0656,"ARG_OF_PERICENTER":176.5861,"MEAN_ANOMALY":183.5478,"EPHEMERIS_TYPE":0,"CLASSIFICATION_TYPE":"U","NORAD_CAT_ID":39491,"ELEMENT_SET_NO":999,"REV_AT_EPOCH":66388,"BSTAR":0.0003906904,"MEAN_MOTION_DOT":5.469e-5,"MEAN_MOTION_DDOT":0},{"OBJECT_NAME":"STARLINK-4383","OBJECT_ID":"2022-099J","EPOCH":"2026-03-09T20:35:10.006080","MEAN_MOTION":15.05647582,"ECCENTRICITY":0.00015171,"INCLINATION":97.6031,"RA_OF_ASC_NODE":191.4216,"ARG_OF_PERICENTER":96.7823,"MEAN_ANOMALY":263.3576,"EPHEMERIS_TYPE":0,"CLASSIFICATION_TYPE":"U","NORAD_CAT_ID":53473,"ELEMENT_SET_NO":999,"REV_AT_EPOCH":19607,"BSTAR":3.6060581e-5,"MEAN_MOTION_DOT":4.6e-6,"MEAN_MOTION_DDOT":0}]
